[{"OBJECT_ID":"2010-034A","OBJECT_NAME":"ECHOSTAR 15","NORAD_CAT_ID":"36792","OBJECT_TYPE":"PAYLOAD","PERIOD":"1436.085","INCLINATION":"0.062","APOGEE":"35795.102","PERIGEE":"35777.637","ECCENTRICITY":"0.0002071","MEAN_MOTION":"1.00272594","TLE_LINE1":"1 36792U 10034A   16238.76073046 -.00000309 +00000-0 +00000-0 0  9991","TLE_LINE2":"2 36792 000.0620 288.7767 0002071 250.7962 007.0891 01.00272594022451","LAUNCH_DATE":"2010-07-10","LAUNCH_SITE":"TYURATAM MISSILE AND SPACE COMPLEX","OWNER":"UNITED STATES OF AMERICA","ORBIT_TYPE":"Geosynchronous","OPERATIONAL_STATUS":"Operational","satInfo":{"lng":-72.18368153915614,"lat":-0.9684693519136375,"elevation":-9.516423119643656,"azimuth":27.183681539156144,"range":42758.44906676542,"height":35797.89990460195,"velocity":3.0743192576516107},"x":-247,"y":-80,"dx":0.940638608955624,"dy":-2.926881942496072,"maxAlt":256,"minAlt":256},{"OBJECT_ID":"2010-037A","OBJECT_NAME":"NILESAT 201","NORAD_CAT_ID":"36830","OBJECT_TYPE":"PAYLOAD","PERIOD":"1436.104","INCLINATION":"0.049","APOGEE":"35807.682","PERIGEE":"35765.804","ECCENTRICITY":"0.0004966","MEAN_MOTION":"1.00271262","TLE_LINE1":"1 36830U 10037A   16239.13452203 -.00000086  00000-0  00000+0 0  9996","TLE_LINE2":"2 36830   0.0490 196.7014 0004966 310.0536 229.4581  1.00271262 22372","LAUNCH_DATE":"2010-08-04","LAUNCH_SITE":"FRENCH GUIANA","OWNER":"EGYPT","ORBIT_TYPE":"Geosynchronous","OPERATIONAL_STATUS":"Operational","satInfo":{"lng":71.0988468486113,"lat":0.48108948321318395,"elevation":-8.096607521204213,"azimuth":243.9011531513887,"range":42623.11509329821,"height":35821.59691424733,"velocity":3.073368108140295},"x":243,"y":-85,"dx":0.9955759831362153,"dy":2.907648532738476,"maxAlt":256,"minAlt":256},{"OBJECT_ID":"2010-037B","OBJECT_NAME":"RASCOM QAF 1R","NORAD_CAT_ID":"36831","OBJECT_TYPE":"PAYLOAD","PERIOD":"1436.099","INCLINATION":"0.0098","APOGEE":"35805.731","PERIGEE":"35767.555","ECCENTRICITY":"0.0004527","MEAN_MOTION":"1.00271618","TLE_LINE1":"1 36831U 10037B   16239.06218256 -.00000010  00000-0  00000+0 0  9994","TLE_LINE2":"2 36831   0.0098 112.0285 0004527  56.6819 191.2929  1.00271618 22375","LAUNCH_DATE":"2010-08-04","LAUNCH_SITE":"FRENCH GUIANA","OWNER":"REGIONAL AFRICAN SATELLITE COMMUNICATIONS ORG","ORBIT_TYPE":"Geosynchronous","OPERATIONAL_STATUS":"Operational","satInfo":{"lng":10.72276035313792,"lat":2.131179718853196,"elevation":-6.488465262850905,"azimuth":304.27723964686203,"range":42397.59430475663,"height":35777.01385177392,"velocity":3.0757302071946317},"x":47,"y":-255,"dx":3.0220247720411737,"dy":0.5722609410216858,"maxAlt":256,"minAlt":256},{"OBJECT_ID":"2010-042A","OBJECT_NAME":"CHINASAT 6A","NORAD_CAT_ID":"37150","OBJECT_TYPE":"PAYLOAD","PERIOD":"1436.110","INCLINATION":"0.031","APOGEE":"35794.354","PERIGEE":"35779.377","ECCENTRICITY":"0.0001776","MEAN_MOTION":"1.00270827","TLE_LINE1":"1 37150U 10042A   16238.90935572 -.00000382 +00000-0 +00000-0 0  9997","TLE_LINE2":"2 37150 000.0310 254.7198 0001776 218.3258 313.9774 01.00270827021989","LAUNCH_DATE":"2010-09-04","LAUNCH_SITE":"Xichang Space Center, China","OWNER":"PEOPLES REPUBLIC OF CHINA","ORBIT_TYPE":"Geosynchronous","OPERATIONAL_STATUS":"Operational","satInfo":{"lng":94.79402210693048,"lat":1.6044516807829012,"elevation":-6.9971389859027795,"azimuth":220.20597789306947,"range":42496.030220465625,"height":35817.91935529042,"velocity":3.0733244057567277},"x":256,"y":20,"dx":-0.2568496293351475,"dy":3.0625726392904284,"maxAlt":256,"minAlt":256},{"OBJECT_ID":"2010-053A","OBJECT_NAME":"XM-5","NORAD_CAT_ID":"37185","OBJECT_TYPE":"PAYLOAD","PERIOD":"1436.101","INCLINATION":"0.0103","APOGEE":"35788.482","PERIGEE":"35784.898","ECCENTRICITY":"4.25e-05","MEAN_MOTION":"1.00271451","TLE_LINE1":"1 37185U 10053A   16238.61711579 -.00000232 +00000-0 +00000-0 0  9998","TLE_LINE2":"2 37185 000.0103 102.5125 0000425 147.7436 220.9912 01.00271451021570","LAUNCH_DATE":"2010-10-14","LAUNCH_SITE":"TYURATAM MISSILE AND SPACE COMPLEX","OWNER":"UNITED STATES OF AMERICA","ORBIT_TYPE":"Geosynchronous","OPERATIONAL_STATUS":"Operational","satInfo":{"lng":-101.20766286130491,"lat":0.14543341229834736,"elevation":-8.42950795224185,"azimuth":56.207662861304904,"range":42636.398089702096,"height":35797.794422433835,"velocity":3.0742222926739955},"x":-254,"y":49,"dx":-0.5975228899639176,"dy":-3.0155943196562305,"maxAlt":256,"minAlt":256},{"OBJECT_ID":"2010-056B","OBJECT_NAME":"BSAT-3B","NORAD_CAT_ID":"37207","OBJECT_TYPE":"PAYLOAD","PERIOD":"1436.124","INCLINATION":"0.1074","APOGEE":"35794.802","PERIGEE":"35779.454","ECCENTRICITY":"0.000182","MEAN_MOTION":"1.00269889","TLE_LINE1":"1 37207U 10056B   16239.41875215 -.00000379  00000-0  00000+0 0  9994","TLE_LINE2":"2 37207   0.1074 294.3798 0001820 328.3555 332.9539  1.00269889 21355","LAUNCH_DATE":"2010-10-28","LAUNCH_SITE":"FRENCH GUIANA","OWNER":"JAPAN","ORBIT_TYPE":"Geosynchronous","OPERATIONAL_STATUS":"Operational","satInfo":{"lng":49.35865874282966,"lat":-1.2674859818969322,"elevation":-9.80840217690758,"azimuth":265.6413412571703,"range":42787.561828287624,"height":35794.3041189428,"velocity":3.074626454049864},"x":194,"y":-169,"dx":2.0025715230408583,"dy":2.3330313172028054,"maxAlt":256,"minAlt":256},{"OBJECT_ID":"2010-057A","OBJECT_NAME":"BEIDOU G4","NORAD_CAT_ID":"37210","OBJECT_TYPE":"PAYLOAD","PERIOD":"1436.100","INCLINATION":"0.8829","APOGEE":"35820.735","PERIGEE":"35752.597","ECCENTRICITY":"0.000808","MEAN_MOTION":"1.00271536","TLE_LINE1":"1 37210U 10057A   16238.84658787 -.00000140 +00000-0 +00000-0 0  9995","TLE_LINE2":"2 37210 000.8829 049.2982 0008080 166.2271 223.7590 01.00271536021373","LAUNCH_DATE":"2010-10-31","LAUNCH_SITE":"Xichang Space Center, China","OWNER":"PEOPLES REPUBLIC OF CHINA","ORBIT_TYPE":"Geosynchronous","OPERATIONAL_STATUS":"Operational","satInfo":{"lng":-83.65788926529473,"lat":2.471934365448989,"elevation":-6.140880724767272,"azimuth":38.657889265294706,"range":42422.51298035338,"height":35840.19596729528,"velocity":3.0719496873672574},"x":-258,"y":-30,"dx":0.3393423503274034,"dy":-3.0531494642401746,"maxAlt":257,"minAlt":256},{"OBJECT_ID":"2010-064A","OBJECT_NAME":"CHINASAT 20A","NORAD_CAT_ID":"37234","OBJECT_TYPE":"PAYLOAD","PERIOD":"1436.093","INCLINATION":"0.0732","APOGEE":"35796.601","PERIGEE":"35776.471","ECCENTRICITY":"0.0002387","MEAN_MOTION":"1.00272001","TLE_LINE1":"1 37234U 10064A   16238.76854906 -.00000364  00000-0  00000+0 0  9998","TLE_LINE2":"2 37234   0.0732 264.3054 0002387 337.6681 139.1717  1.00272001 21118","LAUNCH_DATE":"2010-11-24","LAUNCH_SITE":"Xichang Space Center, China","OWNER":"PEOPLES REPUBLIC OF CHINA","ORBIT_TYPE":"Geosynchronous","OPERATIONAL_STATUS":"Operational","satInfo":{"lng":119.79727760139839,"lat":1.9816331659963966,"elevation":-6.631806377997432,"azimuth":195.20272239860157,"range":42431.14166481253,"height":35794.284898455066,"velocity":3.0746694863547392},"x":222,"y":127,"dx":-1.5279038978524442,"dy":2.6681645618754897,"maxAlt":256,"minAlt":256},{"OBJECT_ID":"2010-065A","OBJECT_NAME":"HYLAS 1","NORAD_CAT_ID":"37237","OBJECT_TYPE":"PAYLOAD","PERIOD":"1436.083","INCLINATION":"0.0426","APOGEE":"35792.560","PERIGEE":"35780.122","ECCENTRICITY":"0.0001475","MEAN_MOTION":"1.00272696","TLE_LINE1":"1 37237U 10065A   16239.09317137 -.00000262  00000-0  00000+0 0  9996","TLE_LINE2":"2 37237   0.0426 313.9815 0001475 210.2199 170.6065  1.00272696 21086","LAUNCH_DATE":"2010-11-26","LAUNCH_SITE":"FRENCH GUIANA","OWNER":"UNITED KINGDOM","ORBIT_TYPE":"Geosynchronous","OPERATIONAL_STATUS":"Operational","satInfo":{"lng":-44.302811152346216,"lat":-0.832182735440597,"elevation":-9.389343809874019,"azimuth":359.30281115234624,"range":42715.06305734384,"height":35769.09291652709,"velocity":3.075502906623435},"x":-181,"y":-186,"dx":2.201009691993097,"dy":-2.1480862329994226,"maxAlt":256,"minAlt":256},{"OBJECT_ID":"2010-065B","OBJECT_NAME":"INTELSAT 17","NORAD_CAT_ID":"37238","OBJECT_TYPE":"PAYLOAD","PERIOD":"1436.088","INCLINATION":"0.0461","APOGEE":"35797.036","PERIGEE":"35775.844","ECCENTRICITY":"0.0002513","MEAN_MOTION":"1.00272343","TLE_LINE1":"1 37238U 10065B   16239.03591009 -.00000030  00000-0  00000+0 0  9996","TLE_LINE2":"2 37238   0.0461 259.3121 0002513 253.1142 261.2048  1.00272343 21006","LAUNCH_DATE":"2010-11-26","LAUNCH_SITE":"FRENCH GUIANA","OWNER":"INTERNATIONAL TELECOMMUNICATIONS SATELLITE ORGANIZATION (INTELSAT)","ORBIT_TYPE":"Geosynchronous","OPERATIONAL_STATUS":"Operational","satInfo":{"lng":84.22266269540675,"lat":1.1837964446380147,"elevation":-7.415300628859147,"azimuth":230.77733730459326,"range":42513.76109155499,"height":35789.06093891172,"velocity":3.074537999102534},"x":255,"y":-27,"dx":0.3094915284109002,"dy":3.0589211990123735,"maxAlt":256,"minAlt":256},{"OBJECT_ID":"2010-070A","OBJECT_NAME":"HISPASAT 1E","NORAD_CAT_ID":"37264","OBJECT_TYPE":"PAYLOAD","PERIOD":"1436.111","INCLINATION":"0.0214","APOGEE":"35808.019","PERIGEE":"35765.752","ECCENTRICITY":"0.0005012","MEAN_MOTION":"1.00270754","TLE_LINE1":"1 37264U 10070A   16239.38824353 -.00000245  00000-0  00000+0 0  9998","TLE_LINE2":"2 37264   0.0214 134.2123 0005012  21.1506 289.4656  1.00270754 20750","LAUNCH_DATE":"2010-12-29","LAUNCH_SITE":"FRENCH GUIANA","OWNER":"SPAIN","ORBIT_TYPE":"Geosynchronous","OPERATIONAL_STATUS":"Operational","satInfo":{"lng":-48.27436130753584,"lat":0.7433170741093112,"elevation":-7.853877401227392,"azimuth":3.274361307535814,"range":42526.40209771305,"height":35752.90009623955,"velocity":3.0765478778479904},"x":-194,"y":-173,"dx":2.0476407220728086,"dy":-2.296152067699376,"maxAlt":256,"minAlt":256}]